NORAD_CAT_ID,OBJECT_NAME,OBJECT_TYPE,EPOCH,MEAN_MOTION,ECCENTRICITY,INCLINATION,RA_OF_ASC_NODE,ARG_OF_PERICENTER,MEAN_ANOMALY,BSTAR,MEAN_MOTION_DOT,MEAN_MOTION_DDOT,TLE_LINE0,TLE_LINE1,TLE_LINE2,SEMIMAJOR_AXIS,PERIOD,APOGEE,PERIGEE,DECAYED
54787.0,STARLINK-5441,PAYLOAD,2023-09-03 09:47:16,15.08849192,0.0001434,53.2163,206.1665,87.6074,272.5082,5.3309e-05,5.61e-06,0.0,0 STARLINK-5441,1 54787U 22175AF  23246.40783321  .00000561  00000-0  53309-4 0  9999,2 54787  53.2163 206.1665 0001434  87.6074 272.5082 15.08849192 41292,6917.852,95.437,540.709,538.725,0.0
54787.0,STARLINK-5441,PAYLOAD,2023-09-03 14:33:27,15.08826035,0.0001585,53.2157,205.2746,83.2925,276.8248,-0.00011361,-2.095e-05,0.0,0 STARLINK-5441,1 54787U 22175AF  23246.60657354 -.00002095  00000-0 -11361-3 0  9994,2 54787  53.2157 205.2746 0001585  83.2925 276.8248 15.08826035 39164,6917.923,95.438,540.885,538.692,0.0
54787.0,STARLINK-5441,PAYLOAD,2023-09-04 03:16:32,15.0883076,0.0001168,53.2157,202.8969,84.0859,276.0267,-6.8819e-05,-1.383e-05,0.0,0 STARLINK-5441,1 54787U 22175AF  23247.13649091 -.00001383  00000-0 -68819-4 0  9992,2 54787  53.2157 202.8969 0001168  84.0859 276.0267 15.08830760 39248,6917.909,95.438,540.582,538.966,0.0
54787.0,STARLINK-5441,PAYLOAD,2023-09-04 06:27:18,15.08837368,0.0001272,53.216,202.3018,85.3254,274.7883,-3.3427e-05,-8.2e-06,0.0,0 STARLINK-5441,1 54787U 22175AF  23247.26896654 -.00000820  00000-0 -33427-4 0  9997,2 54787  53.2160 202.3018 0001272  85.3254 274.7883 15.08837368 39263,6917.888,95.438,540.633,538.873,0.0
54787.0,STARLINK-5441,PAYLOAD,2023-09-05 03:07:18,15.08847946,0.0001181,53.2161,198.4365,83.1814,276.9312,0.0001505,2.109e-05,0.0,0 STARLINK-5441,1 54787U 22175AF  23248.13007543  .00002109  00000-0  15050-3 0  9996,2 54787  53.2161 198.4365 0001181  83.1814 276.9312 15.08847946 39399,6917.856,95.437,540.538,538.904,0.0
54787.0,STARLINK-5441,PAYLOAD,2023-09-06 02:58:06,15.08834843,0.0001243,53.2161,193.9766,79.6451,280.4681,0.00014248,1.98e-05,0.0,0 STARLINK-5441,1 54787U 22175AF  23249.12368481  .00001980  00000-0  14248-3 0  9991,2 54787  53.2161 193.9766 0001243  79.6451 280.4681 15.08834843 39548,6917.896,95.438,540.621,538.901,0.0
54787.0,STARLINK-5441,PAYLOAD,2023-09-07 02:48:52,15.08846963,0.0001318,53.2161,189.514,95.2391,264.8751,2.4126e-05,9.6e-07,0.0,0 STARLINK-5441,1 54787U 22175AF  23250.11727945  .00000096  00000-0  24126-4 0  9990,2 54787  53.2161 189.5140 0001318  95.2391 264.8751 15.08846963 39691,6917.859,95.437,540.636,538.812,0.0
54787.0,STARLINK-5441,PAYLOAD,2023-09-07 05:59:39,15.08849872,0.0001232,53.2161,188.9192,93.4343,266.679,-7.451e-06,-4.06e-06,0.0,0 STARLINK-5441,1 54787U 22175AF  23250.24975798 -.00000406  00000-0 -74510-5 0  9995,2 54787  53.2161 188.9192 0001232  93.4343 266.6790 15.08849872 41871,6917.85,95.437,540.567,538.863,0.0
54787.0,STARLINK-5441,PAYLOAD,2023-09-08 02:39:40,15.0883503,0.0001205,53.2161,185.0553,92.521,267.592,4.0987e-05,3.64e-06,0.0,0 STARLINK-5441,1 54787U 22175AF  23251.11088719  .00000364  00000-0  40987-4 0  9991,2 54787  53.2161 185.0553 0001205  92.5210 267.5920 15.08835030 39843,6917.896,95.438,540.594,538.927,0.0
54787.0,STARLINK-5441,PAYLOAD,2023-09-08 05:50:26,15.08837795,0.0001255,53.2164,184.4601,92.0419,268.0716,5.527e-05,5.92e-06,0.0,0 STARLINK-5441,1 54787U 22175AF  23251.24336548  .00000592  00000-0  55270-4 0  9995,2 54787  53.2164 184.4601 0001255  92.0419 268.0716 15.08837795 42027,6917.887,95.438,540.62,538.884,0.0
54787.0,STARLINK-5441,PAYLOAD,2023-09-09 04:05:50,15.08846344,0.0001324,53.2167,180.2966,94.351,265.7633,7.9076e-05,9.71e-06,0.0,0 STARLINK-5441,1 54787U 22175AF  23252.17072185  .00000971  00000-0  79076-4 0  9993,2 54787  53.2167 180.2966 0001324  94.3510 265.7633 15.08846344 40000,6917.861,95.437,540.642,538.81,0.0
54787.0,STARLINK-5441,PAYLOAD,2023-09-09 12:02:46,15.08842652,0.0001299,53.2164,178.8088,91.206,268.9081,5.3407e-05,5.62e-06,0.0,0 STARLINK-5441,1 54787U 22175AF  23252.50192362  .00000562  00000-0  53407-4 0  9996,2 54787  53.2164 178.8088 0001299  91.2060 268.9081 15.08842652 42217,6917.872,95.437,540.636,538.839,0.0
54787.0,STARLINK-5441,PAYLOAD,2023-09-10 02:21:14,15.08842139,0.0001424,53.2175,176.1357,91.5019,268.6137,7.7958e-05,9.53e-06,0.0,0 STARLINK-5441,1 54787U 22175AF  23253.09808758  .00000953  00000-0  77958-4 0  9995,2 54787  53.2175 176.1357 0001424  91.5019 268.6137 15.08842139 40145,6917.874,95.437,540.724,538.754,0.0
54787.0,STARLINK-5441,PAYLOAD,2023-09-10 03:56:37,15.08843831,0.0001409,53.2172,175.8377,88.6195,271.4958,9.6035e-05,1.241e-05,0.0,0 STARLINK-5441,1 54787U 22175AF  23253.16432608  .00001241  00000-0  96035-4 0  9998,2 54787  53.2172 175.8377 0001409  88.6195 271.4958 15.08843831 42319,6917.869,95.437,540.708,538.759,0.0
54787.0,STARLINK-5441,PAYLOAD,2023-09-11 02:12:02,15.08842682,0.0001327,53.2171,171.6745,87.3411,272.7733,2.6805e-05,1.39e-06,0.0,0 STARLINK-5441,1 54787U 22175AF  23254.09169106  .00000139  00000-0  26805-4 0  9994,2 54787  53.2171 171.6745 0001327  87.3411 272.7733 15.08842682 40290,6917.872,95.437,540.655,538.819,0.0
54787.0,STARLINK-5441,PAYLOAD,2023-09-11 11:44:20,15.08843313,0.0001365,53.2171,169.89,85.5643,274.5505,3.4257e-05,2.57e-06,0.0,0 STARLINK-5441,1 54787U 22175AF  23254.48913015  .00000257  00000-0  34257-4 0  9994,2 54787  53.2171 169.8900 0001365  85.5643 274.5505 15.08843313 42517,6917.87,95.437,540.68,538.791,0.0
54787.0,STARLINK-5441,PAYLOAD,2023-09-12 03:38:11,15.08853137,0.0001193,53.2168,166.9156,80.3254,279.7873,0.0001598,2.257e-05,0.0,0 STARLINK-5441,1 54787U 22175AF  23255.15152117  .00002257  00000-0  15980-3 0  9990,2 54787  53.2168 166.9156 0001193  80.3254 279.7873 15.08853137 40455,6917.84,95.437,540.531,538.88,0.0
54787.0,STARLINK-5441,PAYLOAD,2023-09-12 17:56:40,15.0884193,0.000174,53.2166,164.2403,82.5018,277.6171,5.9254e-05,6.55e-06,0.0,0 STARLINK-5441,1 54787U 22175AF  23255.74769316  .00000655  00000-0  59254-4 0  9993,2 54787  53.2166 164.2403 0001740  82.5018 277.6171 15.08841930 40545,6917.874,95.437,540.943,538.536,0.0
54787.0,STARLINK-5441,PAYLOAD,2023-09-13 00:18:12,15.08845171,0.0001329,53.2166,163.0511,88.1945,271.9199,7.9854e-05,9.83e-06,0.0,0 STARLINK-5441,1 54787U 22175AF  23256.01264931  .00000983  00000-0  79854-4 0  9999,2 54787  53.2166 163.0511 0001329  88.1945 271.9199 15.08845171 42748,6917.865,95.437,540.649,538.81,0.0
54787.0,STARLINK-5441,PAYLOAD,2023-09-13 17:47:26,15.08849137,0.0001348,53.2158,159.7791,90.3207,269.7939,0.00012912,1.768e-05,0.0,0 STARLINK-5441,1 54787U 22175AF  23256.74128322  .00001768  00000-0  12912-3 0  9995,2 54787  53.2158 159.7791 0001348  90.3207 269.7939 15.08849137 40693,6917.852,95.437,540.65,538.785,0.0
54787.0,STARLINK-5441,PAYLOAD,2023-09-13 20:58:13,15.08849151,0.0001379,53.2151,159.1845,88.8121,271.3029,0.00017151,2.443e-05,0.0,0 STARLINK-5441,1 54787U 22175AF  23256.87376477  .00002443  00000-0  17151-3 0  9996,2 54787  53.2151 159.1845 0001379  88.8121 271.3029 15.08849151 42878,6917.852,95.437,540.671,538.763,0.0
54787.0,STARLINK-5441,PAYLOAD,2023-09-14 03:19:45,15.08857467,0.0001423,53.2166,157.9954,91.9387,268.1768,0.00014649,2.045e-05,0.0,0 STARLINK-5441,1 54787U 22175AF  23257.13871806  .00002045  00000-0  14649-3 0  9999,2 54787  53.2166 157.9954 0001423  91.9387 268.1768 15.08857467 42918,6917.827,95.436,540.676,538.708,0.0
54787.0,STARLINK-5441,PAYLOAD,2023-09-14 20:49:00,15.0883333,0.0001452,53.2162,154.7241,106.3554,253.7597,-9.7485e-05,-1.839e-05,0.0,0 STARLINK-5441,1 54787U 22175AF  23257.86737199 -.00001839  00000-0 -97485-4 0  9997,2 54787  53.2162 154.7241 0001452 106.3554 253.7597 15.08833330 43023,6917.901,95.438,540.77,538.761,0.0
54787.0,STARLINK-5441,PAYLOAD,2023-09-15 03:10:33,15.0884037,0.0001191,53.2163,153.5346,94.9919,265.1209,2.8934e-05,1.73e-06,0.0,0 STARLINK-5441,1 54787U 22175AF  23258.13232992  .00000173  00000-0  28934-4 0  9990,2 54787  53.2163 153.5346 0001191  94.9919 265.1209 15.08840370 40907,6917.879,95.438,540.568,538.92,0.0
54787.0,STARLINK-5441,PAYLOAD,2023-09-16 03:01:19,15.08848436,0.0001177,53.217,149.075,106.1031,254.0091,0.00012065,1.633e-05,0.0,0 STARLINK-5441,1 54787U 22175AF  23259.12592540  .00001633  00000-0  12065-3 0  9997,2 54787  53.2170 149.0750 0001177 106.1031 254.0091 15.08848436 43213,6917.855,95.437,540.534,538.905,0.0
54787.0,STARLINK-5441,PAYLOAD,2023-09-16 17:19:49,15.08833932,0.0001086,53.2173,146.3968,96.7022,263.4093,0.00011312,1.513e-05,0.0,0 STARLINK-5441,1 54787U 22175AF  23259.72209793  .00001513  00000-0  11312-3 0  9999,2 54787  53.2173 146.3968 0001086  96.7022 263.4093 15.08833932 41141,6917.899,95.438,540.515,539.013,0.0
54787.0,STARLINK-5441,PAYLOAD,2023-09-17 02:52:07,15.08842809,9.18e-05,53.2157,144.6131,86.3411,273.7686,0.0001741,2.484e-05,0.0,0 STARLINK-5441,1 54787U 22175AF  23260.11953317  .00002484  00000-0  17410-3 0  9995,2 54787  53.2157 144.6131 0000918  86.3411 273.7686 15.08842809 41208,6917.872,95.437,540.372,539.102,0.0
54787.0,STARLINK-5441,PAYLOAD,2023-09-17 23:32:08,15.08848222,0.000106,53.2158,140.7479,84.9606,275.1507,0.00013432,1.851e-05,0.0,0 STARLINK-5441,1 54787U 22175AF  23260.98065130  .00001851  00000-0  13432-3 0  9994,2 54787  53.2158 140.7479 0001060  84.9606 275.1507 15.08848222 43496,6917.855,95.437,540.454,538.987,0.0
54787.0,STARLINK-5441,PAYLOAD,2023-09-18 20:12:08,15.08853598,0.0001127,53.2162,136.8819,75.8262,284.2856,0.00025651,3.798e-05,0.0,0 STARLINK-5441,1 54787U 22175AF  23261.84176648  .00003798  00000-0  25651-3 0  9995,2 54787  53.2162 136.8819 0001127  75.8262 284.2856 15.08853598 43621,6917.839,95.437,540.483,538.924,0.0
54787.0,STARLINK-5441,PAYLOAD,2023-09-18 23:22:54,15.08861105,0.0001236,53.2162,136.2875,66.5827,293.5295,0.00034882,5.271e-05,0.0,0 STARLINK-5441,1 54787U 22175AF  23261.97424319  .00005271  00000-0  34882-3 0  9994,2 54787  53.2162 136.2875 0001236  66.5827 293.5295 15.08861105 41487,6917.816,95.436,540.536,538.826,0.0
